LEMUR-2-LANGER2SPACE    
1 63358U 25061H   26117.45841524  .00004923  00000+0  27452-3 0  9999
2 63358  97.5586  93.5171 0018725  74.7698 285.5602 15.13897874 59945
LEMUR-2-BALTO           
1 63395U 25052BH  26117.41523645  .00006459  00000+0  52998-3 0  9996
2 63395  97.6942  11.6469 0001358 179.3144 180.8081 14.99558747 61156
LEMUR-2-KRISH           
1 64561U 25135AK  26117.30619248  .00006436  00000+0  58284-3 0  9996
2 64561  97.7669 232.5737 0001059 107.5194 252.6142 14.95721822 46316
LEMUR-2-HUBBLE-4        
1 64565U 25135AP  26117.41127280  .00001888  00000+0  18681-3 0  9995
2 64565  97.7637 231.9457 0003998  98.9719 261.1953 14.93053428 46297
LEMUR-2-SEJONG-2        
1 64586U 25135BL  26117.55430755  .00005397  00000+0  48283-3 0  9997
2 64586  97.7625 232.9591 0005743 126.4897 233.6854 14.96263549 46374
LEMUR-2-HUBBLE-5        
1 64840U 25135BT  26117.32465059  .00002131  00000+0  20533-3 0  9991
2 64840  97.7653 232.4220 0006641 138.5434 221.6291 14.93975969 46310
LEMUR-2-KARENDARRELL    
1 64841U 25135BU  26117.27781633  .00011176  00000+0  91603-3 0  9990
2 64841  97.7672 233.6003 0009277  46.2943 313.9046 14.99401014 46383
LEMUR-2-LUCILLE-ROSE    
1 65403U 25135BV  26117.31951588  .00010754  00000+0  88147-3 0  9998
2 65403  97.7647 233.6302 0011009  94.9005 265.3475 14.99396076 41019
LEMUR-2-AFFIE-WAUWIE    
1 66295U 25248C   26117.13620181  .00027207  00000+0  10636-2 0  9993
2 66295  45.3993  31.2220 0008960 156.4634 203.6666 15.25427228 26796
LEMUR-2-DEANANDMAEVE    
1 66678U 25276N   26117.47264110  .00009060  00000+0  43477-3 0  9999
2 66678  97.4230 191.8113 0006408 162.8303 197.3149 15.19079261 22712
LEMUR-2-STAS-GORBUK     
1 66686U 25276W   26117.47697767  .00007324  00000+0  35484-3 0  9996
2 66686  97.4267 191.8709 0006034 158.1133 202.0361 15.18818517 22710
LEMUR-2-TEODOR          
1 66768U 25276DG  26117.45049470  .00006986  00000+0  32286-3 0  9997
2 66768  97.4166 192.0177 0001237  74.2924 285.8448 15.20486235 22735
LEMUR-2-LAILA           
1 66776U 25276DQ  26117.16844383  .00007355  00000+0  33766-3 0  9995
2 66776  97.4192 191.8286 0001825  57.8868 302.2544 15.20695882 22694
LEMUR-2-CELIJO-SB-PK    
1 66781U 25276DW  26117.19211607  .00007300  00000+0  60154-3 0  9992
2 66781  97.5248 189.6615 0008609 304.4485  55.5924 14.99314354 14987
LEMUR-2-FINNIAN         
1 66782U 25276DX  26117.45034653  .00007033  00000+0  57317-3 0  9996
2 66782  97.5268 190.0988 0005294 282.3542  77.7089 14.99772654 12396
LEMUR-2-STARLIGHT       
1 66783U 25276DY  26117.16299526  .00006676  00000+0  56101-3 0  9999
2 66783  97.5291 189.5588 0012825 308.6306  51.3768 14.98552126 22550
