[{"OBJECT_NAME":"LEMUR-2-LANGER2SPACE","OBJECT_ID":"2025-061H","EPOCH":"2026-04-27T11:00:07.076736","MEAN_MOTION":15.13897874,"ECCENTRICITY":0.0018725,"INCLINATION":97.5586,"RA_OF_ASC_NODE":93.5171,"ARG_OF_PERICENTER":74.7698,"MEAN_ANOMALY":285.5602,"EPHEMERIS_TYPE":0,"CLASSIFICATION_TYPE":"U","NORAD_CAT_ID":63358,"ELEMENT_SET_NO":999,"REV_AT_EPOCH":5994,"BSTAR":0.00027452,"MEAN_MOTION_DOT":4.923e-5,"MEAN_MOTION_DDOT":0},{"OBJECT_NAME":"LEMUR-2-BALTO","OBJECT_ID":"2025-052BH","EPOCH":"2026-04-27T09:57:56.429280","MEAN_MOTION":14.99558747,"ECCENTRICITY":0.0001358,"INCLINATION":97.6942,"RA_OF_ASC_NODE":11.6469,"ARG_OF_PERICENTER":179.3144,"MEAN_ANOMALY":180.8081,"EPHEMERIS_TYPE":0,"CLASSIFICATION_TYPE":"U","NORAD_CAT_ID":63395,"ELEMENT_SET_NO":999,"REV_AT_EPOCH":6115,"BSTAR":0.00052998,"MEAN_MOTION_DOT":6.459e-5,"MEAN_MOTION_DDOT":0},{"OBJECT_NAME":"LEMUR-2-KRISH","OBJECT_ID":"2025-135AK","EPOCH":"2026-04-27T07:20:55.030272","MEAN_MOTION":14.95721822,"ECCENTRICITY":0.0001059,"INCLINATION":97.7669,"RA_OF_ASC_NODE":232.5737,"ARG_OF_PERICENTER":107.5194,"MEAN_ANOMALY":252.6142,"EPHEMERIS_TYPE":0,"CLASSIFICATION_TYPE":"U","NORAD_CAT_ID":64561,"ELEMENT_SET_NO":999,"REV_AT_EPOCH":4631,"BSTAR":0.00058284,"MEAN_MOTION_DOT":6.436e-5,"MEAN_MOTION_DDOT":0},{"OBJECT_NAME":"LEMUR-2-HUBBLE-4","OBJECT_ID":"2025-135AP","EPOCH":"2026-04-27T09:52:13.969920","MEAN_MOTION":14.93053428,"ECCENTRICITY":0.0003998,"INCLINATION":97.7637,"RA_OF_ASC_NODE":231.9457,"ARG_OF_PERICENTER":98.9719,"MEAN_ANOMALY":261.1953,"EPHEMERIS_TYPE":0,"CLASSIFICATION_TYPE":"U","NORAD_CAT_ID":64565,"ELEMENT_SET_NO":999,"REV_AT_EPOCH":4629,"BSTAR":0.00018681,"MEAN_MOTION_DOT":1.888e-5,"MEAN_MOTION_DDOT":0},{"OBJECT_NAME":"LEMUR-2-SEJONG-2","OBJECT_ID":"2025-135BL","EPOCH":"2026-04-27T13:18:12.172320","MEAN_MOTION":14.96263549,"ECCENTRICITY":0.0005743,"INCLINATION":97.7625,"RA_OF_ASC_NODE":232.9591,"ARG_OF_PERICENTER":126.4897,"MEAN_ANOMALY":233.6854,"EPHEMERIS_TYPE":0,"CLASSIFICATION_TYPE":"U","NORAD_CAT_ID":64586,"ELEMENT_SET_NO":999,"REV_AT_EPOCH":4637,"BSTAR":0.00048283,"MEAN_MOTION_DOT":5.397e-5,"MEAN_MOTION_DDOT":0},{"OBJECT_NAME":"LEMUR-2-HUBBLE-5","OBJECT_ID":"2025-135BT","EPOCH":"2026-04-27T07:47:29.810976","MEAN_MOTION":14.93975969,"ECCENTRICITY":0.0006641,"INCLINATION":97.7653,"RA_OF_ASC_NODE":232.422,"ARG_OF_PERICENTER":138.5434,"MEAN_ANOMALY":221.6291,"EPHEMERIS_TYPE":0,"CLASSIFICATION_TYPE":"U","NORAD_CAT_ID":64840,"ELEMENT_SET_NO":999,"REV_AT_EPOCH":4631,"BSTAR":0.00020533,"MEAN_MOTION_DOT":2.131e-5,"MEAN_MOTION_DDOT":0},{"OBJECT_NAME":"LEMUR-2-KARENDARRELL","OBJECT_ID":"2025-135BU","EPOCH":"2026-04-27T06:40:03.330912","MEAN_MOTION":14.99401014,"ECCENTRICITY":0.0009277,"INCLINATION":97.7672,"RA_OF_ASC_NODE":233.6003,"ARG_OF_PERICENTER":46.2943,"MEAN_ANOMALY":313.9046,"EPHEMERIS_TYPE":0,"CLASSIFICATION_TYPE":"U","NORAD_CAT_ID":64841,"ELEMENT_SET_NO":999,"REV_AT_EPOCH":4638,"BSTAR":0.00091603,"MEAN_MOTION_DOT":0.00011176,"MEAN_MOTION_DDOT":0},{"OBJECT_NAME":"LEMUR-2-LUCILLE-ROSE","OBJECT_ID":"2025-135BV","EPOCH":"2026-04-27T07:40:06.172032","MEAN_MOTION":14.99396076,"ECCENTRICITY":0.0011009,"INCLINATION":97.7647,"RA_OF_ASC_NODE":233.6302,"ARG_OF_PERICENTER":94.9005,"MEAN_ANOMALY":265.3475,"EPHEMERIS_TYPE":0,"CLASSIFICATION_TYPE":"U","NORAD_CAT_ID":65403,"ELEMENT_SET_NO":999,"REV_AT_EPOCH":4101,"BSTAR":0.00088147,"MEAN_MOTION_DOT":0.00010754,"MEAN_MOTION_DDOT":0},{"OBJECT_NAME":"LEMUR-2-AFFIE-WAUWIE","OBJECT_ID":"2025-248C","EPOCH":"2026-04-27T03:16:07.836384","MEAN_MOTION":15.25427228,"ECCENTRICITY":0.00089603,"INCLINATION":45.3993,"RA_OF_ASC_NODE":31.222,"ARG_OF_PERICENTER":156.4634,"MEAN_ANOMALY":203.6666,"EPHEMERIS_TYPE":0,"CLASSIFICATION_TYPE":"U","NORAD_CAT_ID":66295,"ELEMENT_SET_NO":999,"REV_AT_EPOCH":2679,"BSTAR":0.0010635759,"MEAN_MOTION_DOT":0.00027207,"MEAN_MOTION_DDOT":0},{"OBJECT_NAME":"LEMUR-2-DEANANDMAEVE","OBJECT_ID":"2025-276N","EPOCH":"2026-04-27T11:20:36.191040","MEAN_MOTION":15.19079261,"ECCENTRICITY":0.0006408,"INCLINATION":97.423,"RA_OF_ASC_NODE":191.8113,"ARG_OF_PERICENTER":162.8303,"MEAN_ANOMALY":197.3149,"EPHEMERIS_TYPE":0,"CLASSIFICATION_TYPE":"U","NORAD_CAT_ID":66678,"ELEMENT_SET_NO":999,"REV_AT_EPOCH":2271,"BSTAR":0.00043477,"MEAN_MOTION_DOT":9.06e-5,"MEAN_MOTION_DDOT":0},{"OBJECT_NAME":"LEMUR-2-STAS-GORBUK","OBJECT_ID":"2025-276W","EPOCH":"2026-04-27T11:26:50.870688","MEAN_MOTION":15.18818517,"ECCENTRICITY":0.0006034,"INCLINATION":97.4267,"RA_OF_ASC_NODE":191.8709,"ARG_OF_PERICENTER":158.1133,"MEAN_ANOMALY":202.0361,"EPHEMERIS_TYPE":0,"CLASSIFICATION_TYPE":"U","NORAD_CAT_ID":66686,"ELEMENT_SET_NO":999,"REV_AT_EPOCH":2271,"BSTAR":0.00035484,"MEAN_MOTION_DOT":7.324e-5,"MEAN_MOTION_DDOT":0},{"OBJECT_NAME":"LEMUR-2-TEODOR","OBJECT_ID":"2025-276DG","EPOCH":"2026-04-27T10:48:42.742080","MEAN_MOTION":15.20486235,"ECCENTRICITY":0.0001237,"INCLINATION":97.4166,"RA_OF_ASC_NODE":192.0177,"ARG_OF_PERICENTER":74.2924,"MEAN_ANOMALY":285.8448,"EPHEMERIS_TYPE":0,"CLASSIFICATION_TYPE":"U","NORAD_CAT_ID":66768,"ELEMENT_SET_NO":999,"REV_AT_EPOCH":2273,"BSTAR":0.00032286,"MEAN_MOTION_DOT":6.986e-5,"MEAN_MOTION_DDOT":0},{"OBJECT_NAME":"LEMUR-2-LAILA","OBJECT_ID":"2025-276DQ","EPOCH":"2026-04-27T04:02:33.546912","MEAN_MOTION":15.20695882,"ECCENTRICITY":0.00018258,"INCLINATION":97.4192,"RA_OF_ASC_NODE":191.8286,"ARG_OF_PERICENTER":57.8868,"MEAN_ANOMALY":302.2544,"EPHEMERIS_TYPE":0,"CLASSIFICATION_TYPE":"U","NORAD_CAT_ID":66776,"ELEMENT_SET_NO":999,"REV_AT_EPOCH":2269,"BSTAR":0.00033765618,"MEAN_MOTION_DOT":7.355e-5,"MEAN_MOTION_DDOT":0},{"OBJECT_NAME":"LEMUR-2-CELIJO-SB-PK","OBJECT_ID":"2025-276DW","EPOCH":"2026-04-27T04:36:38.828448","MEAN_MOTION":14.99314354,"ECCENTRICITY":0.00086094,"INCLINATION":97.5248,"RA_OF_ASC_NODE":189.6615,"ARG_OF_PERICENTER":304.4485,"MEAN_ANOMALY":55.5924,"EPHEMERIS_TYPE":0,"CLASSIFICATION_TYPE":"U","NORAD_CAT_ID":66781,"ELEMENT_SET_NO":999,"REV_AT_EPOCH":1498,"BSTAR":0.00060153884,"MEAN_MOTION_DOT":7.3e-5,"MEAN_MOTION_DDOT":0},{"OBJECT_NAME":"LEMUR-2-FINNIAN","OBJECT_ID":"2025-276DX","EPOCH":"2026-04-27T10:48:29.940192","MEAN_MOTION":14.99772654,"ECCENTRICITY":0.0005294,"INCLINATION":97.5268,"RA_OF_ASC_NODE":190.0988,"ARG_OF_PERICENTER":282.3542,"MEAN_ANOMALY":77.7089,"EPHEMERIS_TYPE":0,"CLASSIFICATION_TYPE":"U","NORAD_CAT_ID":66782,"ELEMENT_SET_NO":999,"REV_AT_EPOCH":1239,"BSTAR":0.00057317,"MEAN_MOTION_DOT":7.033e-5,"MEAN_MOTION_DDOT":0},{"OBJECT_NAME":"LEMUR-2-STARLIGHT","OBJECT_ID":"2025-276DY","EPOCH":"2026-04-27T03:54:42.790464","MEAN_MOTION":14.98552126,"ECCENTRICITY":0.00128251,"INCLINATION":97.5291,"RA_OF_ASC_NODE":189.5588,"ARG_OF_PERICENTER":308.6306,"MEAN_ANOMALY":51.3768,"EPHEMERIS_TYPE":0,"CLASSIFICATION_TYPE":"U","NORAD_CAT_ID":66783,"ELEMENT_SET_NO":999,"REV_AT_EPOCH":2255,"BSTAR":0.00056100886,"MEAN_MOTION_DOT":6.676e-5,"MEAN_MOTION_DDOT":0}]
